#aV2014  4  5  0  0  0.00000000     288 DD+AD WGS84 FIT  NGA
## 1786 518400.00000000   300.00000000 56752 0.0000000000000
+   31     1  2  3  4  5  7  8  9 10 11 12 13 14 15 16 17 18
+         19 20 21 22 23 24 25 26 27 28 29 30 31 32  0  0  0
+          0  0  0  0  0  0  0  0  0  0  0  0  0  0  0  0  0
+          0  0  0  0  0  0  0  0  0  0  0  0  0  0  0  0  0
+          0  0  0  0  0  0  0  0  0  0  0  0  0  0  0  0  0
++         2  2  2  2  2  2  2  2  2  2  2  2  2  2  2  2  2
++         2  2  2  2  2  2  2  2  2  2  2  2  2  2  0  0  0
++         0  0  0  0  0  0  0  0  0  0  0  0  0  0  0  0  0
++         0  0  0  0  0  0  0  0  0  0  0  0  0  0  0  0  0
++         0  0  0  0  0  0  0  0  0  0  0  0  0  0  0  0  0
%c cc cc ccc ccc cccc cccc cccc cccc ccccc ccccc ccccc ccccc
%c cc cc ccc ccc cccc cccc cccc cccc ccccc ccccc ccccc ccccc
%f  0.0000000  0.000000000  0.00000000000  0.000000000000000
%f  0.0000000  0.000000000  0.00000000000  0.000000000000000
%i    0    0    0    0      0      0      0      0         0
%i    0    0    0    0      0      0      0      0         0
/*      NGA, ST. LOUIS,MO.                                  
/*   EPHEMERIS COMPUTED FROM  1 DAYS OF DATA                
/*   EPOCHA SMOOTHER                                       
/* CCCCCCCCCCCCCCCCCCCCCCCCCCCCCCCCCCCCCCCCCCCCCCCCCCCCCCCCC
*  2014  4  5  0 50  0.00000000
P  1  13335.411739 -22867.427598   -969.329691      7.221018                    
V  1   3126.828608    521.228029  31808.407064      0.016538                    
P  2 -18533.735833   6860.388755 -17222.948017    487.885799                    
V  2   9279.166042 -20838.940238 -18487.387916      0.021684                    
P  3  15826.153916  -3970.913297  20443.164007    347.615661                    
V  3  15791.944311  22236.585365  -7545.838282      0.049625                    
P  4 -13464.741687  -8358.381018 -21620.508379      6.428471                    
V  4  13937.863599 -22916.298708    419.186939      0.001774                    
P  5 -25919.952536   3210.806938   5240.000302   -380.693334                    
V  5  -6618.233851  -3147.270505 -30422.776851      0.020990                    
P  7   2774.189528 -22142.229982  14214.346255    331.722645                    
V  7  11485.930895 -14058.443813 -24575.387529      0.042250                    
P  8  -4955.829321 -15544.320176  20954.034656     12.694986                    
V  8  17027.402968 -20112.137610 -11558.670409      0.002042                    
P  9  -7579.150145 -14019.747654  20680.391112    317.712564                    
V  9  15109.595825 -22965.084808  -9950.179863      0.029123                    
P 10 -22030.220587  -9633.419986 -12073.660656   -120.559773                    
V 10  14779.448141  -1843.360638 -25810.269548     -0.013076                    
P 11  12446.719566 -21403.922231   8839.564456   -477.964889                    
V 11   1876.322013  12875.969435  27276.973897     -0.031854                    
P 12 -14686.425102  11534.680559 -18853.207277    196.562631                    
V 12 -23710.428447  -2654.882427  17116.102786      0.024275                    
P 13  -3303.854600 -24577.939248  -9426.976423     13.066223                    
V 13   6499.856289  10082.058370 -29134.530593     -0.039098                    
P 14  14454.109323  21376.353647  -6392.490269    184.471616                    
V 14   1322.217422   8572.691416  30483.879065     -0.032988                    
P 15 -10553.326467  12345.876986  20919.153924   -172.095546                    
V 15 -14401.769645 -22650.567115   6374.123045     -0.021255                    
P 16  26150.283451  -1438.599643   5428.019749   -224.686521                    
V 16   6704.511837   2157.911878 -31131.514954      0.017376                    
P 17 -15573.885430 -20288.134789  -7326.016940    -82.315801                    
V 17  -2143.623424  -9622.942526  29925.445576     -0.032426                    
P 18   6282.694217  15811.716111  20897.347606    311.296797                    
V 18 -25622.831436    277.756673   7318.496794      0.022189                    
P 19  12039.635201  -9622.272712  21449.832557   -449.066674                    
V 19  11465.069372  25108.155630   5236.055151     -0.023412                    
P 20  12985.387222 -14276.317392 -18405.961244    176.567076                    
V 20  23190.973038   1120.800735  15723.659403      0.036271                    
P 21   1053.281773  21361.892141  16079.371038   -353.447666                    
V 21 -12328.614781  15403.597613 -20937.077564     -0.022220                    
P 22  18950.774067  11596.101163  14877.267345    224.503072                    
V 22 -18627.178717   2318.234009  22065.584982      0.028745                    
P 23   4906.891674 -18413.248864 -18227.087991     -9.700292                    
V 23  12724.653114  19880.722005 -16973.743998     -0.031581                    
P 24 -15858.996240  20830.645106   4152.839878    -26.140542                    
V 24    179.895298  -6083.723383  31145.343657     -0.006701                    
P 25   -988.826356  14886.269070 -22035.866619     20.841115                    
V 25 -27771.080820   -722.186638    890.230213      0.011466                    
P 26 -15787.197423  -1267.287580  20719.611890    118.289105                    
V 26 -10256.846644 -25785.796752  -8817.346059     -0.112582                    
P 27  17286.082345   2542.146312  20017.222875    -20.226401                    
V 27  11271.455051  22788.747010 -12576.181567      0.004523                    
P 28 -15310.016695 -13223.714022  17885.369003    344.850768                    
V 28  21410.547135    921.976404  19552.783410      0.028245                    
P 29   3146.429892  23991.606277 -10965.927868    523.194783                    
V 29  -8022.986369 -11635.065627 -27600.243124      0.027561                    
P 30  -4620.235819 -17171.735971  19716.127455      1.620010                    
V 30  15706.890782 -19566.460046 -13374.829210     -0.022260                    
P 31  15068.861899   3373.611167 -21500.207896    334.110926                    
V 31 -14788.930215  23258.248884  -6363.754589      0.001086                    
P 32  23040.756408  -5624.048581 -11319.059256   -455.774051                    
V 32  14256.351393   4752.107086  27042.957499      0.074851                    
EOF
